{"type": "FeatureCollection", "features": [ {"type": "Feature", "properties": {"norad_id": 67011, "name": "STARLINK-36167", "group": "last-30-days", "lat": -50.27529581859225, "lon": -103.6373305753514, "alt_km": 360.62313978785187, "timestamp": "2025-12-27T02:10:14.910073+00:00", "meta": {"OBJECT_NAME": "STARLINK-36167", "OBJECT_ID": "2025-293J", "EPOCH": "2025-12-26T20:00:01.999008", "MEAN_MOTION": 15.71842484, "ECCENTRICITY": 0.000408, "INCLINATION": 69.9969, "RA_OF_ASC_NODE": 283.0894, "ARG_OF_PERICENTER": 263.8575, "MEAN_ANOMALY": 27.3235, "EPHEMERIS_TYPE": 0, "CLASSIFICATION_TYPE": "U", "NORAD_CAT_ID": 67011, "ELEMENT_SET_NO": 999, "REV_AT_EPOCH": 237, "BSTAR": -0.014286, "MEAN_MOTION_DOT": -0.01651575, "MEAN_MOTION_DDOT": 0}, "tle": {"line1": "1 67011U 25293J   25360.83335647 -.01651575  00000+0 -14286-1 0  9994", "line2": "2 67011  69.9969 283.0894 0004080 263.8575  27.3235 15.71842484  2375"}}, "geometry": {"type": "Point", "coordinates": [-103.6373305753514, -50.27529581859225]}}, {"type": "Feature", "properties": {"norad_id": 67012, "name": "STARLINK-36175", "group": "last-30-days", "lat": -46.456866989580874, "lon": -100.17792050281714, "alt_km": 360.8124275500595, "timestamp": "2025-12-27T02:10:14.910083+00:00", "meta": {"OBJECT_NAME": "STARLINK-36175", "OBJECT_ID": "2025-293K", "EPOCH": "2025-12-26T20:00:01.999008", "MEAN_MOTION": 15.71842398, "ECCENTRICITY": 0.0003829, "INCLINATION": 69.9973, "RA_OF_ASC_NODE": 283.0845, "ARG_OF_PERICENTER": 263.9219, "MEAN_ANOMALY": 31.7305, "EPHEMERIS_TYPE": 0, "CLASSIFICATION_TYPE": "U", "NORAD_CAT_ID": 67012, "ELEMENT_SET_NO": 999, "REV_AT_EPOCH": 237, "BSTAR": -0.01451, "MEAN_MOTION_DOT": -0.01674181, "MEAN_MOTION_DDOT": 0}, "tle": {"line1": "1 67012U 25293K   25360.83335647 -.01674181  00000+0 -14510-1 0  9993", "line2": "2 67012  69.9973 283.0845 0003829 263.9219  31.7305 15.71842398  2374"}}, "geometry": {"type": "Point", "coordinates": [-100.17792050281714, -46.456866989580874]}}, {"type": "Feature", "properties": {"norad_id": 67013, "name": "STARLINK-35856", "group": "last-30-days", "lat": -44.40252651788887, "lon": -98.5448760208359, "alt_km": 360.9740905118606, "timestamp": "2025-12-27T02:10:14.910092+00:00", "meta": {"OBJECT_NAME": "STARLINK-35856", "OBJECT_ID": "2025-293L", "EPOCH": "2025-12-26T20:00:01.999008", "MEAN_MOTION": 15.71827499, "ECCENTRICITY": 0.0003612, "INCLINATION": 69.9972, "RA_OF_ASC_NODE": 283.0812, "ARG_OF_PERICENTER": 265.2175, "MEAN_ANOMALY": 32.8165, "EPHEMERIS_TYPE": 0, "CLASSIFICATION_TYPE": "U", "NORAD_CAT_ID": 67013, "ELEMENT_SET_NO": 999, "REV_AT_EPOCH": 237, "BSTAR": -0.014827, "MEAN_MOTION_DOT": -0.0170536, "MEAN_MOTION_DDOT": 0}, "tle": {"line1": "1 67013U 25293L   25360.83335647 -.01705360  00000+0 -14827-1 0  9999", "line2": "2 67013  69.9972 283.0812 0003612 265.2175  32.8165 15.71827499  2375"}}, "geometry": {"type": "Point", "coordinates": [-98.5448760208359, -44.40252651788887]}}, {"type": "Feature", "properties": {"norad_id": 67014, "name": "STARLINK-36207", "group": "last-30-days", "lat": -42.42544929213871, "lon": -97.09066972288527, "alt_km": 360.98452172343787, "timestamp": "2025-12-27T02:10:14.910102+00:00", "meta": {"OBJECT_NAME": "STARLINK-36207", "OBJECT_ID": "2025-293M", "EPOCH": "2025-12-26T20:00:01.999008", "MEAN_MOTION": 15.71805601, "ECCENTRICITY": 0.0003759, "INCLINATION": 69.9977, "RA_OF_ASC_NODE": 283.0801, "ARG_OF_PERICENTER": 263.3253, "MEAN_ANOMALY": 36.9635, "EPHEMERIS_TYPE": 0, "CLASSIFICATION_TYPE": "U", "NORAD_CAT_ID": 67014, "ELEMENT_SET_NO": 999, "REV_AT_EPOCH": 243, "BSTAR": -0.014591, "MEAN_MOTION_DOT": -0.01680066, "MEAN_MOTION_DDOT": 0}, "tle": {"line1": "1 67014U 25293M   25360.83335647 -.01680066  00000+0 -14591-1 0  9993", "line2": "2 67014  69.9977 283.0801 0003759 263.3253  36.9635 15.71805601  2432"}}, "geometry": {"type": "Point", "coordinates": [-97.09066972288527, -42.42544929213871]}}, {"type": "Feature", "properties": {"norad_id": 67015, "name": "STARLINK-36093", "group": "last-30-days", "lat": -38.43594266709186, "lon": -94.4548906329993, "alt_km": 361.1374758984375, "timestamp": "2025-12-27T02:10:14.910112+00:00", "meta": {"OBJECT_NAME": "STARLINK-36093", "OBJECT_ID": "2025-293N", "EPOCH": "2025-12-26T20:00:01.999008", "MEAN_MOTION": 15.71766279, "ECCENTRICITY": 0.000367, "INCLINATION": 69.9972, "RA_OF_ASC_NODE": 283.0735, "ARG_OF_PERICENTER": 262.3142, "MEAN_ANOMALY": 42.4809, "EPHEMERIS_TYPE": 0, "CLASSIFICATION_TYPE": "U", "NORAD_CAT_ID": 67015, "ELEMENT_SET_NO": 999, "REV_AT_EPOCH": 237, "BSTAR": -0.014543, "MEAN_MOTION_DOT": -0.01672631, "MEAN_MOTION_DDOT": 0}, "tle": {"line1": "1 67015U 25293N   25360.83335647 -.01672631  00000+0 -14543-1 0  9990", "line2": "2 67015  69.9972 283.0735 0003670 262.3142  42.4809 15.71766279  2377"}}, "geometry": {"type": "Point", "coordinates": [-94.4548906329993, -38.43594266709186]}}, {"type": "Feature", "properties": {"norad_id": 67016, "name": "STARLINK-36120", "group": "last-30-days", "lat": -40.50384960946331, "lon": -95.77751236335517, "alt_km": 361.04613058911764, "timestamp": "2025-12-27T02:10:14.910125+00:00", "meta": {"OBJECT_NAME": "STARLINK-36120", "OBJECT_ID": "2025-293P", "EPOCH": "2025-12-26T20:00:01.999008", "MEAN_MOTION": 15.71790572, "ECCENTRICITY": 0.0003812, "INCLINATION": 69.9973, "RA_OF_ASC_NODE": 283.0765, "ARG_OF_PERICENTER": 262.0565, "MEAN_ANOMALY": 40.4072, "EPHEMERIS_TYPE": 0, "CLASSIFICATION_TYPE": "U", "NORAD_CAT_ID": 67016, "ELEMENT_SET_NO": 999, "REV_AT_EPOCH": 237, "BSTAR": -0.014594, "MEAN_MOTION_DOT": -0.01679481, "MEAN_MOTION_DDOT": 0}, "tle": {"line1": "1 67016U 25293P   25360.83335647 -.01679481  00000+0 -14594-1 0  9997", "line2": "2 67016  69.9973 283.0765 0003812 262.0565  40.4072 15.71790572  2379"}}, "geometry": {"type": "Point", "coordinates": [-95.77751236335517, -40.50384960946331]}}, {"type": "Feature", "properties": {"norad_id": 67017, "name": "STARLINK-35498", "group": "last-30-days", "lat": -36.42813861905843, "lon": -93.24984725932198, "alt_km": 361.03269690110574, "timestamp": "2025-12-27T02:10:14.910135+00:00", "meta": {"OBJECT_NAME": "STARLINK-35498", "OBJECT_ID": "2025-293Q", "EPOCH": "2025-12-26T20:00:01.999008", "MEAN_MOTION": 15.71752985, "ECCENTRICITY": 0.0003869, "INCLINATION": 69.9969, "RA_OF_ASC_NODE": 283.0705, "ARG_OF_PERICENTER": 263.9738, "MEAN_ANOMALY": 43.0615, "EPHEMERIS_TYPE": 0, "CLASSIFICATION_TYPE": "U", "NORAD_CAT_ID": 67017, "ELEMENT_SET_NO": 999, "REV_AT_EPOCH": 256, "BSTAR": -0.014617, "MEAN_MOTION_DOT": -0.01679558, "MEAN_MOTION_DDOT": 0}, "tle": {"line1": "1 67017U 25293Q   25360.83335647 -.01679558  00000+0 -14617-1 0  9999", "line2": "2 67017  69.9969 283.0705 0003869 263.9738  43.0615 15.71752985  2562"}}, "geometry": {"type": "Point", "coordinates": [-93.24984725932198, -36.42813861905843]}}, {"type": "Feature", "properties": {"norad_id": 67018, "name": "STARLINK-36106", "group": "last-30-days", "lat": -34.40362097923712, "lon": -92.10307762094895, "alt_km": 361.07380623349763, "timestamp": "2025-12-27T02:10:14.910146+00:00", "meta": {"OBJECT_NAME": "STARLINK-36106", "OBJECT_ID": "2025-293R", "EPOCH": "2025-12-26T20:00:01.999008", "MEAN_MOTION": 15.71736653, "ECCENTRICITY": 0.0003817, "INCLINATION": 69.9969, "RA_OF_ASC_NODE": 283.0672, "ARG_OF_PERICENTER": 264.0641, "MEAN_ANOMALY": 45.22, "EPHEMERIS_TYPE": 0, "CLASSIFICATION_TYPE": "U", "NORAD_CAT_ID": 67018, "ELEMENT_SET_NO": 999, "REV_AT_EPOCH": 248, "BSTAR": -0.014639, "MEAN_MOTION_DOT": -0.0168071, "MEAN_MOTION_DDOT": 0}, "tle": {"line1": "1 67018U 25293R   25360.83335647 -.01680710  00000+0 -14639-1 0  9996", "line2": "2 67018  69.9969 283.0672 0003817 264.0641  45.2200 15.71736653  2483"}}, "geometry": {"type": "Point", "coordinates": [-92.10307762094895, -34.40362097923712]}}, {"type": "Feature", "properties": {"norad_id": 67019, "name": "STARLINK-35688", "group": "last-30-days", "lat": -32.44359332107665, "lon": -91.04952444136984, "alt_km": 361.2069352742801, "timestamp": "2025-12-27T02:10:14.910156+00:00", "meta": {"OBJECT_NAME": "STARLINK-35688", "OBJECT_ID": "2025-293S", "EPOCH": "2025-12-26T20:00:01.999008", "MEAN_MOTION": 15.71723285, "ECCENTRICITY": 0.0003733, "INCLINATION": 69.9967, "RA_OF_ASC_NODE": 283.0646, "ARG_OF_PERICENTER": 261.711, "MEAN_ANOMALY": 49.7367, "EPHEMERIS_TYPE": 0, "CLASSIFICATION_TYPE": "U", "NORAD_CAT_ID": 67019, "ELEMENT_SET_NO": 999, "REV_AT_EPOCH": 256, "BSTAR": -0.014661, "MEAN_MOTION_DOT": -0.01681987, "MEAN_MOTION_DDOT": 0}, "tle": {"line1": "1 67019U 25293S   25360.83335647 -.01681987  00000+0 -14661-1 0  9999", "line2": "2 67019  69.9967 283.0646 0003733 261.7110  49.7367 15.71723285  2564"}}, "geometry": {"type": "Point", "coordinates": [-91.04952444136984, -32.44359332107665]}}, {"type": "Feature", "properties": {"norad_id": 67020, "name": "STARLINK-36172", "group": "last-30-days", "lat": -30.200427518607977, "lon": -89.9031794670746, "alt_km": 361.16714552841495, "timestamp": "2025-12-27T02:10:14.910166+00:00", "meta": {"OBJECT_NAME": "STARLINK-36172", "OBJECT_ID": "2025-293T", "EPOCH": "2025-12-26T20:00:01.999008", "MEAN_MOTION": 15.71692458, "ECCENTRICITY": 0.0003817, "INCLINATION": 69.9968, "RA_OF_ASC_NODE": 283.0621, "ARG_OF_PERICENTER": 263.0174, "MEAN_ANOMALY": 50.9073, "EPHEMERIS_TYPE": 0, "CLASSIFICATION_TYPE": "U", "NORAD_CAT_ID": 67020, "ELEMENT_SET_NO": 999, "REV_AT_EPOCH": 248, "BSTAR": -0.014636, "MEAN_MOTION_DOT": -0.01677576, "MEAN_MOTION_DDOT": 0}, "tle": {"line1": "1 67020U 25293T   25360.83335647 -.01677576  00000+0 -14636-1 0  9992", "line2": "2 67020  69.9968 283.0621 0003817 263.0174  50.9073 15.71692458  2484"}}, "geometry": {"type": "Point", "coordinates": [-89.9031794670746, -30.200427518607977]}}]}